{"type": "FeatureCollection", "features": [ {"type": "Feature", "properties": {"norad_id": 30690, "name": "FENGYUN 1C DEB", "group": "fengyun-1c-debris", "lat": 36.87790998128075, "lon": -85.32642333070385, "alt_km": 814.386774337594, "timestamp": "2025-12-17T04:57:44.644034+00:00", "meta": {"OBJECT_NAME": "FENGYUN 1C DEB", "OBJECT_ID": "1999-025AQY", "EPOCH": "2025-12-16T18:46:12.353952", "MEAN_MOTION": 14.02342328, "ECCENTRICITY": 0.01050884, "INCLINATION": 99.159, "RA_OF_ASC_NODE": 281.1986, "ARG_OF_PERICENTER": 64.9973, "MEAN_ANOMALY": 350.2621, "EPHEMERIS_TYPE": 0, "CLASSIFICATION_TYPE": "U", "NORAD_CAT_ID": 30690, "ELEMENT_SET_NO": 999, "REV_AT_EPOCH": 95764, "BSTAR": 0.0011020154, "MEAN_MOTION_DOT": 1.73e-05, "MEAN_MOTION_DDOT": 0}, "tle": {"line1": "1 30690U 99025AQY 25350.78208743  .00001730  00000+0  11020-2 0  9993", "line2": "2 30690  99.1590 281.1986 0105088  64.9973 350.2621 14.02342328957647"}}, "geometry": {"type": "Point", "coordinates": [-85.32642333070385, 36.87790998128075]}}, {"type": "Feature", "properties": {"norad_id": 30691, "name": "FENGYUN 1C DEB", "group": "fengyun-1c-debris", "lat": -6.412117648186209, "lon": -178.64589490871737, "alt_km": 849.7859799193166, "timestamp": "2025-12-17T04:57:44.644044+00:00", "meta": {"OBJECT_NAME": "FENGYUN 1C DEB", "OBJECT_ID": "1999-025AQZ", "EPOCH": "2025-12-16T00:44:24.616608", "MEAN_MOTION": 13.89443647, "ECCENTRICITY": 0.01393841, "INCLINATION": 98.7419, "RA_OF_ASC_NODE": 1.2405, "ARG_OF_PERICENTER": 224.0503, "MEAN_ANOMALY": 204.4481, "EPHEMERIS_TYPE": 0, "CLASSIFICATION_TYPE": "U", "NORAD_CAT_ID": 30691, "ELEMENT_SET_NO": 999, "REV_AT_EPOCH": 95162, "BSTAR": 0.00096663385, "MEAN_MOTION_DOT": 1.235e-05, "MEAN_MOTION_DDOT": 0}, "tle": {"line1": "1 30691U 99025AQZ 25350.03084047  .00001235  00000+0  96663-3 0  9998", "line2": "2 30691  98.7419   1.2405 0139384 224.0503 204.4481 13.89443647951620"}}, "geometry": {"type": "Point", "coordinates": [-178.64589490871737, -6.412117648186209]}}, {"type": "Feature", "properties": {"norad_id": 30693, "name": "FENGYUN 1C DEB", "group": "fengyun-1c-debris", "lat": -34.52146945446196, "lon": -17.76082730617518, "alt_km": 875.3159382689519, "timestamp": "2025-12-17T04:57:44.644053+00:00", "meta": {"OBJECT_NAME": "FENGYUN 1C DEB", "OBJECT_ID": "1999-025ARB", "EPOCH": "2025-12-16T22:19:55.371936", "MEAN_MOTION": 14.13291939, "ECCENTRICITY": 0.00294987, "INCLINATION": 98.6862, "RA_OF_ASC_NODE": 335.9352, "ARG_OF_PERICENTER": 155.531, "MEAN_ANOMALY": 204.727, "EPHEMERIS_TYPE": 0, "CLASSIFICATION_TYPE": "U", "NORAD_CAT_ID": 30693, "ELEMENT_SET_NO": 999, "REV_AT_EPOCH": 96994, "BSTAR": 0.00028905074, "MEAN_MOTION_DOT": 5.02e-06, "MEAN_MOTION_DDOT": 0}, "tle": {"line1": "1 30693U 99025ARB 25350.93050199  .00000502  00000+0  28905-3 0  9990", "line2": "2 30693  98.6862 335.9352 0029498 155.5310 204.7270 14.13291939969945"}}, "geometry": {"type": "Point", "coordinates": [-17.76082730617518, -34.52146945446196]}}, {"type": "Feature", "properties": {"norad_id": 30694, "name": "FENGYUN 1C DEB", "group": "fengyun-1c-debris", "lat": -43.39849844605085, "lon": -33.314130172644475, "alt_km": 540.9518904680463, "timestamp": "2025-12-17T04:57:44.644063+00:00", "meta": {"OBJECT_NAME": "FENGYUN 1C DEB", "OBJECT_ID": "1999-025ARC", "EPOCH": "2025-12-16T21:04:50.792160", "MEAN_MOTION": 14.86599054, "ECCENTRICITY": 0.01298638, "INCLINATION": 99.0469, "RA_OF_ASC_NODE": 317.6469, "ARG_OF_PERICENTER": 281.5249, "MEAN_ANOMALY": 77.1406, "EPHEMERIS_TYPE": 0, "CLASSIFICATION_TYPE": "U", "NORAD_CAT_ID": 30694, "ELEMENT_SET_NO": 999, "REV_AT_EPOCH": 157, "BSTAR": 0.0011636061, "MEAN_MOTION_DOT": 0.00011974, "MEAN_MOTION_DDOT": 0}, "tle": {"line1": "1 30694U 99025ARC 25350.87836565  .00011974  00000+0  11636-2 0  9990", "line2": "2 30694  99.0469 317.6469 0129863 281.5249  77.1406 14.86599054  1576"}}, "geometry": {"type": "Point", "coordinates": [-33.314130172644475, -43.39849844605085]}}, {"type": "Feature", "properties": {"norad_id": 30696, "name": "FENGYUN 1C DEB", "group": "fengyun-1c-debris", "lat": -55.01508680241901, "lon": 52.341309957138755, "alt_km": 812.3123064659758, "timestamp": "2025-12-17T04:57:44.644072+00:00", "meta": {"OBJECT_NAME": "FENGYUN 1C DEB", "OBJECT_ID": "1999-025ARE", "EPOCH": "2025-12-16T02:45:34.996032", "MEAN_MOTION": 14.44782807, "ECCENTRICITY": 0.00897769, "INCLINATION": 98.3891, "RA_OF_ASC_NODE": 39.0902, "ARG_OF_PERICENTER": 115.685, "MEAN_ANOMALY": 273.4061, "EPHEMERIS_TYPE": 0, "CLASSIFICATION_TYPE": "U", "NORAD_CAT_ID": 30696, "ELEMENT_SET_NO": 999, "REV_AT_EPOCH": 98353, "BSTAR": 0.00054953893, "MEAN_MOTION_DOT": 1.96e-05, "MEAN_MOTION_DDOT": 0}, "tle": {"line1": "1 30696U 99025ARE 25350.11498838  .00001960  00000+0  54954-3 0  9991", "line2": "2 30696  98.3891  39.0902 0089776 115.6850 273.4061 14.44782807983536"}}, "geometry": {"type": "Point", "coordinates": [52.341309957138755, -55.01508680241901]}}, {"type": "Feature", "properties": {"norad_id": 30697, "name": "FENGYUN 1C DEB", "group": "fengyun-1c-debris", "lat": -65.22244230204242, "lon": 67.89157878939163, "alt_km": 886.3599882639082, "timestamp": "2025-12-17T04:57:44.644081+00:00", "meta": {"OBJECT_NAME": "FENGYUN 1C DEB", "OBJECT_ID": "1999-025ARF", "EPOCH": "2025-12-15T14:56:36.208320", "MEAN_MOTION": 14.13538077, "ECCENTRICITY": 0.00881273, "INCLINATION": 98.9072, "RA_OF_ASC_NODE": 46.4528, "ARG_OF_PERICENTER": 177.2425, "MEAN_ANOMALY": 338.4172, "EPHEMERIS_TYPE": 0, "CLASSIFICATION_TYPE": "U", "NORAD_CAT_ID": 30697, "ELEMENT_SET_NO": 999, "REV_AT_EPOCH": 96301, "BSTAR": 0.0012976224, "MEAN_MOTION_DOT": 2.493e-05, "MEAN_MOTION_DDOT": 0}, "tle": {"line1": "1 30697U 99025ARF 25349.62264130  .00002493  00000+0  12976-2 0  9991", "line2": "2 30697  98.9072  46.4528 0088127 177.2425 338.4172 14.13538077963011"}}, "geometry": {"type": "Point", "coordinates": [67.89157878939163, -65.22244230204242]}}, {"type": "Feature", "properties": {"norad_id": 30699, "name": "FENGYUN 1C DEB", "group": "fengyun-1c-debris", "lat": -57.48717475061641, "lon": -83.79095712724467, "alt_km": 739.3123335237697, "timestamp": "2025-12-17T04:57:44.644090+00:00", "meta": {"OBJECT_NAME": "FENGYUN 1C DEB", "OBJECT_ID": "1999-025ARH", "EPOCH": "2025-12-16T06:17:18.616992", "MEAN_MOTION": 14.46993442, "ECCENTRICITY": 0.00044837, "INCLINATION": 99.3116, "RA_OF_ASC_NODE": 110.0877, "ARG_OF_PERICENTER": 245.6467, "MEAN_ANOMALY": 114.4255, "EPHEMERIS_TYPE": 0, "CLASSIFICATION_TYPE": "U", "NORAD_CAT_ID": 30699, "ELEMENT_SET_NO": 999, "REV_AT_EPOCH": 97664, "BSTAR": 0.0015873145, "MEAN_MOTION_DOT": 5.725e-05, "MEAN_MOTION_DDOT": 0}, "tle": {"line1": "1 30699U 99025ARH 25350.26202103  .00005725  00000+0  15873-2 0  9997", "line2": "2 30699  99.3116 110.0877 0004483 245.6467 114.4255 14.46993442976645"}}, "geometry": {"type": "Point", "coordinates": [-83.79095712724467, -57.48717475061641]}}, {"type": "Feature", "properties": {"norad_id": 30700, "name": "FENGYUN 1C DEB", "group": "fengyun-1c-debris", "lat": -40.87332028271749, "lon": 26.866994423175793, "alt_km": 881.1067739439059, "timestamp": "2025-12-17T04:57:44.644099+00:00", "meta": {"OBJECT_NAME": "FENGYUN 1C DEB", "OBJECT_ID": "1999-025ARJ", "EPOCH": "2025-12-15T12:40:51.787488", "MEAN_MOTION": 14.23796371, "ECCENTRICITY": 0.00872134, "INCLINATION": 98.5415, "RA_OF_ASC_NODE": 17.7636, "ARG_OF_PERICENTER": 135.2494, "MEAN_ANOMALY": 225.5764, "EPHEMERIS_TYPE": 0, "CLASSIFICATION_TYPE": "U", "NORAD_CAT_ID": 30700, "ELEMENT_SET_NO": 999, "REV_AT_EPOCH": 97609, "BSTAR": 0.00017862366, "MEAN_MOTION_DOT": 3.83e-06, "MEAN_MOTION_DDOT": 0}, "tle": {"line1": "1 30700U 99025ARJ 25349.52837717  .00000383  00000+0  17862-3 0  9998", "line2": "2 30700  98.5415  17.7636 0087213 135.2494 225.5764 14.23796371976098"}}, "geometry": {"type": "Point", "coordinates": [26.866994423175793, -40.87332028271749]}}, {"type": "Feature", "properties": {"norad_id": 30701, "name": "FENGYUN 1C DEB", "group": "fengyun-1c-debris", "lat": 4.005685385323845, "lon": -146.9895382200095, "alt_km": 846.2239907347484, "timestamp": "2025-12-17T04:57:44.644109+00:00", "meta": {"OBJECT_NAME": "FENGYUN 1C DEB", "OBJECT_ID": "1999-025ARK", "EPOCH": "2025-12-15T13:48:37.560672", "MEAN_MOTION": 14.1393466, "ECCENTRICITY": 0.00357597, "INCLINATION": 98.7181, "RA_OF_ASC_NODE": 30.8039, "ARG_OF_PERICENTER": 94.899, "MEAN_ANOMALY": 61.426, "EPHEMERIS_TYPE": 0, "CLASSIFICATION_TYPE": "U", "NORAD_CAT_ID": 30701, "ELEMENT_SET_NO": 999, "REV_AT_EPOCH": 97159, "BSTAR": 1.8177611e-05, "MEAN_MOTION_DOT": -8e-08, "MEAN_MOTION_DDOT": 0}, "tle": {"line1": "1 30701U 99025ARK 25349.57543473 -.00000008  00000+0  18178-4 0  9994", "line2": "2 30701  98.7181  30.8039 0035759  94.8990  61.4260 14.13934660971595"}}, "geometry": {"type": "Point", "coordinates": [-146.9895382200095, 4.005685385323845]}}, {"type": "Feature", "properties": {"norad_id": 30702, "name": "FENGYUN 1C DEB", "group": "fengyun-1c-debris", "lat": -46.168462706657444, "lon": 20.14011094264368, "alt_km": 842.4412810429085, "timestamp": "2025-12-17T04:57:44.644118+00:00", "meta": {"OBJECT_NAME": "FENGYUN 1C DEB", "OBJECT_ID": "1999-025ARL", "EPOCH": "2025-12-16T19:47:08.494368", "MEAN_MOTION": 14.03602926, "ECCENTRICITY": 0.00687425, "INCLINATION": 98.7691, "RA_OF_ASC_NODE": 10.5192, "ARG_OF_PERICENTER": 290.1626, "MEAN_ANOMALY": 251.7245, "EPHEMERIS_TYPE": 0, "CLASSIFICATION_TYPE": "U", "NORAD_CAT_ID": 30702, "ELEMENT_SET_NO": 999, "REV_AT_EPOCH": 96219, "BSTAR": 0.00079210345, "MEAN_MOTION_DOT": 1.227e-05, "MEAN_MOTION_DDOT": 0}, "tle": {"line1": "1 30702U 99025ARL 25350.82440387  .00001227  00000+0  79210-3 0  9991", "line2": "2 30702  98.7691  10.5192 0068742 290.1626 251.7245 14.03602926962191"}}, "geometry": {"type": "Point", "coordinates": [20.14011094264368, -46.168462706657444]}}]}